start=new Date('2023-05-15T00:00:00.000Z').valueOf();
sats=[{"BSTAR":"0.00003787800000","ELEMENT_SET_NO":"999","COUNTRY_CODE":"US","EPHEMERIS_TYPE":"0","OBJECT_NAME":"STARLINK-5185","GP_ID":"231855389","CLASSIFICATION_TYPE":"U","RCS_SIZE":"LARGE","OBJECT_TYPE":"PAYLOAD","ECCENTRICITY":"0.00012790","OBJECT_ID":"2022-136BB","TLE_LINE1":"1 54100U 22136BB  23134.82552209  .00000315  00000-0  37878-4 0  9996","PERIAPSIS":"538.870","MEAN_MOTION":"15.08836845","NORAD_CAT_ID":"54100","SEMIMAJOR_AXIS":"6917.890","MEAN_MOTION_DOT":"0.00000315","REV_AT_EPOCH":"3151","DECAY_DATE":null,"CENTER_NAME":"EARTH","MEAN_MOTION_DDOT":"0.0000000000000","APOAPSIS":"540.640","INCLINATION":"53.2156","RA_OF_ASC_NODE":"277.0728","MEAN_ELEMENT_THEORY":"SGP4","FILE":"3908005","TLE_LINE2":"2 54100  53.2156 277.0728 0001279 103.8593 256.2542 15.08836845 31519","MEAN_ANOMALY":"256.2542","REF_FRAME":"TEME","SITE":"AFETR","TIME_SYSTEM":"UTC","LAUNCH_DATE":"2022-10-20","ARG_OF_PERICENTER":"103.8593","PERIOD":"95.438","EPOCH":"2023-05-14T19:48:45.108576"},{"BSTAR":"0.00000236910000","ELEMENT_SET_NO":"999","COUNTRY_CODE":"US","EPHEMERIS_TYPE":"0","OBJECT_NAME":"STARLINK-5204","RCS_SIZE":"LARGE","CLASSIFICATION_TYPE":"U","GP_ID":"231856140","OBJECT_TYPE":"PAYLOAD","OBJECT_ID":"2022-136BC","ECCENTRICITY":"0.00014030","PERIAPSIS":"538.776","TLE_LINE1":"1 54101U 22136BC  23134.62730215 -.00000250  00000-0  23691-5 0  9998","MEAN_MOTION":"15.08839722","SEMIMAJOR_AXIS":"6917.881","NORAD_CAT_ID":"54101","MEAN_MOTION_DOT":"-0.00000250","REV_AT_EPOCH":"3169","CENTER_NAME":"EARTH","DECAY_DATE":null,"APOAPSIS":"540.717","MEAN_MOTION_DDOT":"0.0000000000000","RA_OF_ASC_NODE":"263.0120","INCLINATION":"53.2187","MEAN_ELEMENT_THEORY":"SGP4","FILE":"3908005","TLE_LINE2":"2 54101  53.2187 263.0120 0001403  65.9545 294.1594 15.08839722 31693","MEAN_ANOMALY":"294.1594","REF_FRAME":"TEME","LAUNCH_DATE":"2022-10-20","TIME_SYSTEM":"UTC","SITE":"AFETR","ARG_OF_PERICENTER":"65.9545","PERIOD":"95.438","EPOCH":"2023-05-14T15:03:18.905760"},{"COUNTRY_CODE":"US","EPHEMERIS_TYPE":"0","BSTAR":"0.00005770000000","ELEMENT_SET_NO":"999","TLE_LINE1":"1 54102U 22136BD  23134.81446051  .00000631  00000-0  57700-4 0  9991","PERIAPSIS":"538.989","MEAN_MOTION":"15.08841906","NORAD_CAT_ID":"54102","SEMIMAJOR_AXIS":"6917.875","MEAN_MOTION_DOT":"0.00000631","OBJECT_NAME":"STARLINK-5179","GP_ID":"231858028","CLASSIFICATION_TYPE":"U","RCS_SIZE":"LARGE","OBJECT_TYPE":"PAYLOAD","ECCENTRICITY":"0.00010850","OBJECT_ID":"2022-136BD","INCLINATION":"53.2175","RA_OF_ASC_NODE":"277.0021","MEAN_ELEMENT_THEORY":"SGP4","TLE_LINE2":"2 54102  53.2175 277.0021 0001085  87.5965 272.5151 15.08841906 31986","FILE":"3908027","MEAN_ANOMALY":"272.5151","REF_FRAME":"TEME","REV_AT_EPOCH":"3198","DECAY_DATE":null,"CENTER_NAME":"EARTH","MEAN_MOTION_DDOT":"0.0000000000000","APOAPSIS":"540.490","SITE":"AFETR","TIME_SYSTEM":"UTC","LAUNCH_DATE":"2022-10-20","ARG_OF_PERICENTER":"87.5965","PERIOD":"95.437","EPOCH":"2023-05-14T19:32:49.388064"},{"CENTER_NAME":"EARTH","DECAY_DATE":null,"APOAPSIS":"539.846","MEAN_MOTION_DDOT":"0.0000000000000","REV_AT_EPOCH":"3229","TLE_LINE2":"2 54103  53.2172 256.4270 0000113 243.0169 117.0812 15.08832534 32296","FILE":"3908026","MEAN_ANOMALY":"117.0812","REF_FRAME":"TEME","RA_OF_ASC_NODE":"256.4270","INCLINATION":"53.2172","MEAN_ELEMENT_THEORY":"SGP4","PERIOD":"95.438","EPOCH":"2023-05-15T01:21:23.632992","LAUNCH_DATE":"2022-10-20","TIME_SYSTEM":"UTC","SITE":"AFETR","ARG_OF_PERICENTER":"243.0169","ELEMENT_SET_NO":"999","BSTAR":"-0.00004680300000","COUNTRY_CODE":"US","EPHEMERIS_TYPE":"0","OBJECT_TYPE":"PAYLOAD","OBJECT_ID":"2022-136BE","ECCENTRICITY":"0.00001130","OBJECT_NAME":"STARLINK-5200","RCS_SIZE":"LARGE","GP_ID":"231858017","CLASSIFICATION_TYPE":"U","SEMIMAJOR_AXIS":"6917.903","NORAD_CAT_ID":"54103","MEAN_MOTION_DOT":"-0.00001032","PERIAPSIS":"539.690","TLE_LINE1":"1 54103U 22136BE  23135.05652353 -.00001032  00000-0 -46803-4 0  9993","MEAN_MOTION":"15.08832534"},{"ELEMENT_SET_NO":"999","BSTAR":"0.00004209900000","EPHEMERIS_TYPE":"0","COUNTRY_CODE":"US","OBJECT_ID":"2022-136BF","ECCENTRICITY":"0.00013400","OBJECT_TYPE":"PAYLOAD","RCS_SIZE":"LARGE","GP_ID":"231855890","CLASSIFICATION_TYPE":"U","OBJECT_NAME":"STARLINK-5203","MEAN_MOTION_DOT":"0.00000382","SEMIMAJOR_AXIS":"6917.867","NORAD_CAT_ID":"54104","MEAN_MOTION":"15.08844277","PERIAPSIS":"538.805","TLE_LINE1":"1 54104U 22136BF  23134.70275282  .00000382  00000-0  42099-4 0  9995","APOAPSIS":"540.659","MEAN_MOTION_DDOT":"0.0000000000000","CENTER_NAME":"EARTH","DECAY_DATE":null,"REV_AT_EPOCH":"3198","MEAN_ANOMALY":"286.3641","REF_FRAME":"TEME","FILE":"3908005","TLE_LINE2":"2 54104  53.2191 242.7859 0001340  73.7498 286.3641 15.08844277 31987","MEAN_ELEMENT_THEORY":"SGP4","RA_OF_ASC_NODE":"242.7859","INCLINATION":"53.2191","EPOCH":"2023-05-14T16:51:57.843648","PERIOD":"95.437","ARG_OF_PERICENTER":"73.7498","TIME_SYSTEM":"UTC","LAUNCH_DATE":"2022-10-20","SITE":"AFETR"},{"ARG_OF_PERICENTER":"106.7544","LAUNCH_DATE":"2022-10-28","TIME_SYSTEM":"UTC","SITE":"AFWTR","EPOCH":"2023-05-14T20:04:42.363552","PERIOD":"95.437","MEAN_ELEMENT_THEORY":"SGP4","RA_OF_ASC_NODE":"317.3655","INCLINATION":"53.2155","MEAN_ANOMALY":"253.3518","REF_FRAME":"TEME","TLE_LINE2":"2 54157  53.2155 317.3655 0000631 106.7544 253.3518 15.08853873 30246","FILE":"3908005","REV_AT_EPOCH":"3024","APOAPSIS":"540.140","MEAN_MOTION_DDOT":"0.0000000000000","CENTER_NAME":"EARTH","DECAY_DATE":null,"MEAN_MOTION":"15.08853873","PERIAPSIS":"539.266","TLE_LINE1":"1 54157U 22141A   23134.83660143  .00004161  00000-0  27927-3 0  9998","MEAN_MOTION_DOT":"0.00004161","SEMIMAJOR_AXIS":"6917.838","NORAD_CAT_ID":"54157","RCS_SIZE":"LARGE","CLASSIFICATION_TYPE":"U","GP_ID":"231856146","OBJECT_NAME":"STARLINK-5290","OBJECT_ID":"2022-141A","ECCENTRICITY":"0.00006310","OBJECT_TYPE":"PAYLOAD","EPHEMERIS_TYPE":"0","COUNTRY_CODE":"US","BSTAR":"0.00027927000000","ELEMENT_SET_NO":"999"},{"FILE":"3908005","TLE_LINE2":"2 54158  53.2165 317.7100 0000962  91.9435 268.1667 15.08830952 30239","MEAN_ANOMALY":"268.1667","REF_FRAME":"TEME","RA_OF_ASC_NODE":"317.7100","INCLINATION":"53.2165","MEAN_ELEMENT_THEORY":"SGP4","CENTER_NAME":"EARTH","DECAY_DATE":null,"APOAPSIS":"540.439","MEAN_MOTION_DDOT":"0.0000000000000","REV_AT_EPOCH":"3023","PERIOD":"95.438","EPOCH":"2023-05-14T18:39:56.548512","LAUNCH_DATE":"2022-10-28","TIME_SYSTEM":"UTC","SITE":"AFWTR","ARG_OF_PERICENTER":"91.9435","COUNTRY_CODE":"US","EPHEMERIS_TYPE":"0","ELEMENT_SET_NO":"999","BSTAR":"0.00031922000000","SEMIMAJOR_AXIS":"6917.908","NORAD_CAT_ID":"54158","MEAN_MOTION_DOT":"0.00004795","PERIAPSIS":"539.108","TLE_LINE1":"1 54158U 22141B   23134.77773783  .00004795  00000-0  31922-3 0  9990","MEAN_MOTION":"15.08830952","OBJECT_TYPE":"PAYLOAD","OBJECT_ID":"2022-141B","ECCENTRICITY":"0.00009620","OBJECT_NAME":"STARLINK-5297","RCS_SIZE":"LARGE","GP_ID":"231856397","CLASSIFICATION_TYPE":"U"},{"MEAN_MOTION":"15.07214200","PERIAPSIS":"544.070","TLE_LINE1":"1 54159U 22141C   23134.83748139  .00003058  00000-0  21933-3 0  9997","MEAN_MOTION_DOT":"0.00003058","SEMIMAJOR_AXIS":"6922.854","NORAD_CAT_ID":"54159","RCS_SIZE":"LARGE","GP_ID":"231857148","CLASSIFICATION_TYPE":"U","OBJECT_NAME":"STARLINK-5294","OBJECT_ID":"2022-141C","ECCENTRICITY":"0.00009380","OBJECT_TYPE":"PAYLOAD","EPHEMERIS_TYPE":"0","COUNTRY_CODE":"US","BSTAR":"0.00021933000000","ELEMENT_SET_NO":"999","ARG_OF_PERICENTER":"90.0519","LAUNCH_DATE":"2022-10-28","TIME_SYSTEM":"UTC","SITE":"AFWTR","EPOCH":"2023-05-14T20:05:58.392096","PERIOD":"95.541","MEAN_ELEMENT_THEORY":"SGP4","RA_OF_ASC_NODE":"317.3802","INCLINATION":"53.2166","MEAN_ANOMALY":"270.0580","REF_FRAME":"TEME","TLE_LINE2":"2 54159  53.2166 317.3802 0000938  90.0519 270.0580 15.07214200 30240","FILE":"3908005","REV_AT_EPOCH":"3024","APOAPSIS":"545.369","MEAN_MOTION_DDOT":"0.0000000000000","CENTER_NAME":"EARTH","DECAY_DATE":null},{"APOAPSIS":"540.901","MEAN_MOTION_DDOT":"0.0000000000000","CENTER_NAME":"EARTH","DECAY_DATE":null,"REV_AT_EPOCH":"3086","MEAN_ANOMALY":"269.3260","REF_FRAME":"TEME","TLE_LINE2":"2 54160  53.2179 272.6485 0001321  90.7884 269.3260 15.08760796 30866","FILE":"3908005","MEAN_ELEMENT_THEORY":"SGP4","RA_OF_ASC_NODE":"272.6485","INCLINATION":"53.2179","EPOCH":"2023-05-14T18:06:08.441568","PERIOD":"95.443","ARG_OF_PERICENTER":"90.7884","TIME_SYSTEM":"UTC","LAUNCH_DATE":"2022-10-28","SITE":"AFWTR","ELEMENT_SET_NO":"999","BSTAR":"0.00086840000000","EPHEMERIS_TYPE":"0","COUNTRY_CODE":"US","OBJECT_ID":"2022-141D","ECCENTRICITY":"0.00013210","OBJECT_TYPE":"PAYLOAD","RCS_SIZE":"LARGE","GP_ID":"231855896","CLASSIFICATION_TYPE":"U","OBJECT_NAME":"STARLINK-5233","MEAN_MOTION_DOT":"0.00013530","SEMIMAJOR_AXIS":"6918.122","NORAD_CAT_ID":"54160","MEAN_MOTION":"15.08760796","PERIAPSIS":"539.074","TLE_LINE1":"1 54160U 22141D   23134.75426437  .00013530  00000-0  86840-3 0  9998"},{"REV_AT_EPOCH":"3023","DECAY_DATE":null,"CENTER_NAME":"EARTH","MEAN_MOTION_DDOT":"0.0000000000000","APOAPSIS":"540.405","INCLINATION":"53.2164","RA_OF_ASC_NODE":"317.6867","MEAN_ELEMENT_THEORY":"SGP4","FILE":"3908005","TLE_LINE2":"2 54161  53.2164 317.6867 0000952  98.2909 261.8191 15.08839505 30231","REF_FRAME":"TEME","MEAN_ANOMALY":"261.8191","SITE":"AFWTR","TIME_SYSTEM":"UTC","LAUNCH_DATE":"2022-10-28","ARG_OF_PERICENTER":"98.2909","PERIOD":"95.438","EPOCH":"2023-05-14T18:34:37.821504","BSTAR":"0.00000869850000","ELEMENT_SET_NO":"999","COUNTRY_CODE":"US","EPHEMERIS_TYPE":"0","OBJECT_NAME":"STARLINK-5269","GP_ID":"231855646","CLASSIFICATION_TYPE":"U","RCS_SIZE":"LARGE","OBJECT_TYPE":"PAYLOAD","ECCENTRICITY":"0.00009520","OBJECT_ID":"2022-141E","TLE_LINE1":"1 54161U 22141E   23134.77404886 -.00000149  00000-0  86985-5 0  9990","PERIAPSIS":"539.088","MEAN_MOTION":"15.08839505","NORAD_CAT_ID":"54161","SEMIMAJOR_AXIS":"6917.882","MEAN_MOTION_DOT":"-0.00000149"}];
